OBJECT_NAME,OBJECT_ID,EPOCH,MEAN_MOTION,ECCENTRICITY,INCLINATION,RA_OF_ASC_NODE,ARG_OF_PERICENTER,MEAN_ANOMALY,EPHEMERIS_TYPE,CLASSIFICATION_TYPE,NORAD_CAT_ID,ELEMENT_SET_NO,REV_AT_EPOCH,BSTAR,MEAN_MOTION_DOT,MEAN_MOTION_DDOT
PERSEUS-M1,2014-033AF,2026-05-13T09:06:01.692000,14.95509627,.0012845,97.9628,76.9475,57.4952,302.7508,0,U,40039,999,64543,.12397E-3,.1314E-4,0
POLYITAN-1,2014-033AJ,2026-05-13T12:20:00.595392,15.32029061,.0005387,98.0972,156.5277,263.8246,96.2380,0,U,40042,999,64828,.35416E-3,.10871E-3,0
TIGRISAT,2014-033AK,2026-05-13T09:59:22.341120,14.85008518,.0049316,97.7790,284.2372,187.0983,172.9540,0,U,40043,999,64046,.16459E-3,.1379E-4,0
AEROCUBE 6A,2014-033AM,2026-05-13T10:05:13.344576,14.97711925,.0040272,97.7215,300.7558,130.3605,230.1145,0,U,40045,999,64141,.37233E-3,.4377E-4,0
AEROCUBE 6B,2014-033AN,2026-05-13T10:56:47.674176,14.99132953,.0037989,97.7169,300.5116,123.7099,236.7754,0,U,40046,999,64155,.31692E-3,.385E-4,0
CANX-4,2014-034C,2026-05-13T03:50:12.024096,14.81197448,.001389,98.3170,7.1807,120.6264,239.6319,0,U,40055,999,63934,.77075E-4,.543E-5,0
CANX-5,2014-034D,2026-05-13T05:25:48.148608,14.81214543,.0013907,98.3171,7.2908,120.6263,239.6321,0,U,40056,999,63016,.77001E-4,.543E-5,0
UKUBE-1,2014-037F,2026-05-13T18:48:44.794656,15.12981553,.0000403,98.4243,133.4590,69.6193,290.5078,0,U,40074,999,64335,.2735E-3,.4748E-4,0
BRITE-PL2 (HEWELIUSZ),2014-049B,2026-05-13T18:12:43.661088,14.94458910,.0013177,97.9059,245.5044,219.5014,140.5247,0,U,40119,999,63630,.74275E-4,.742E-5,0
AEROCUBE 5C,2015-058B,2026-05-13T00:47:04.157664,14.91248892,.01297956,64.7690,11.9373,77.0915,284.4657,0,U,40965,999,36041,.18717417E-3,.2014E-4,0
AEROCUBE 7,2015-058C,2026-05-13T20:44:26.188800,14.95451007,.0119619,64.7635,352.3014,75.4661,285.9686,0,U,40966,999,36082,.25044E-3,.3024E-4,0
FOX-1A (AO-85),2015-058D,2026-05-13T03:15:38.176128,14.90756995,.01289858,64.7769,27.8942,70.3373,291.1605,0,U,40967,999,10834,.18869103E-3,.2E-4,0
SINOD-D 1,2015-058E,2026-05-13T15:29:43.117152,14.95627628,.01175,64.7765,7.0603,66.9245,294.4206,0,U,40968,999,11149,.24469E-3,.295E-4,0
SNAP-3 ALICE,2015-058G,2026-05-13T12:55:15.687264,15.53456347,.0032858,64.7533,223.0163,30.3097,329.9937,0,U,40970,999,11149,.86051E-3,.56333E-3,0
LMRST-SAT,2015-058H,2026-05-13T03:35:09.769632,14.90382370,.01307768,64.7775,24.1244,72.3606,289.1737,0,U,40971,999,10833,.18660367E-3,.1964E-4,0
SNAP-3 EDDIE,2015-058J,2026-05-13T11:46:16.951872,15.54595144,.0033326,64.7453,214.1540,34.0925,326.2349,0,U,40972,999,11362,.77294E-3,.52751E-3,0
PROPCUBE 3,2015-058K,2026-05-13T01:40:25.886784,14.94012121,.01229359,64.7701,2.2358,73.9002,287.5606,0,U,40973,999,10955,.22188327E-3,.2573E-4,0
BISONSAT,2015-058L,2026-05-13T19:00:31.046400,15.15476100,.0078714,64.7593,284.7776,62.0772,298.8293,0,U,40974,999,11040,.39045E-3,.7824E-4,0
SNAP-3 JIMI,2015-058M,2026-05-12T23:16:42.727008,15.01929999,.01049345,64.7659,331.1663,69.9706,291.2672,0,U,40975,999,10893,.29162938E-3,.4121E-4,0
PROPCUBE 1 (FLORA),2015-058N,2026-05-13T03:20:34.502208,14.89015947,.01295832,64.7760,43.8406,74.6421,286.8966,0,U,40976,999,11104,.17989187E-3,.181E-4,0
SINOD-D 3,2015-058P,2026-05-13T16:45:00.491904,14.93743310,.0118086,64.7741,23.4958,71.9182,289.4753,0,U,40977,999,10960,.24069E-3,.2753E-4,0
HORYU-4,2016-012D,2026-05-13T16:32:51.459072,15.78201025,.0005336,30.9895,328.5166,30.7718,329.3251,0,U,41340,999,56533,.72995E-3,.13275E-2,0
RAVAN,2016-067B,2026-05-13T05:57:19.805760,15.51427623,.0007278,97.9946,18.8757,119.3669,240.8309,0,U,41849,999,52227,.45194E-3,.26611E-3,0
CELTEE 1,2016-067C,2026-05-13T21:32:59.265888,15.19330583,.0001741,98.0722,358.1286,58.9739,301.1664,0,U,41850,999,52067,.17859E-3,.3695E-4,0
OPTICUBE 04,2016-067D,2026-05-13T13:04:21.414720,15.09506837,.0014478,98.0736,344.0184,231.8103,128.1821,0,U,41851,999,51994,.87756E-4,.1338E-4,0
AEROCUBE 8D,2016-067E,2026-05-13T08:38:00.716064,15.23894158,.0001971,98.0733,0.8881,244.2585,115.8447,0,U,41852,999,52076,.18605E-3,.441E-4,0
AEROCUBE 8C,2016-067F,2026-05-13T14:05:35.846016,15.24134619,.000558,98.0604,358.4058,164.8365,195.3038,0,U,41853,999,52079,.19897E-3,.4758E-4,0
CORVUS BC2,2017-042X,2026-05-13T10:46:44.431104,15.06068489,.0011954,97.4037,296.1630,225.6055,134.4195,0,U,42846,999,48183,.15033E-3,.2138E-4,0
CORVUS BC1,2017-042Y,2026-05-13T10:44:39.666048,15.06240207,.0011348,97.4069,296.9530,199.4565,160.6231,0,U,42847,999,48186,.14594E-3,.2084E-4,0
MAKERSAT 0,2017-073D,2026-05-13T14:43:18.147072,15.30593809,.0111576,97.4683,15.8945,36.9242,323.9613,0,U,43016,999,46117,.48175E-3,.17217E-3,0
